[
    {
        "Altitude(m)": 706555.6323157256,
        "Argument of Periapsis(deg)": 0.011390121186627068,
        "Eccentricity": 0.0,
        "Inclination(deg)": 45.0,
        "Latitude(deg)": -14.940505135917643,
        "Longitude(deg)": 58.835152631570196,
        "Mean Anomaly(deg)": -21.194083352519186,
        "RAAN(deg)": 174.98924805854182,
        "Satellite Name": "Constellation 1 790",
        "Satellite Number": 790,
        "Semi-Major Axis(m)": 7083131.272910544,
        "Time(s)": 190
    },
    {
        "Altitude(m)": 706543.8399767806,
        "Argument of Periapsis(deg)": 0.011450069192872472,
        "Eccentricity": 0.0,
        "Inclination(deg)": 45.0,
        "Latitude(deg)": -14.898891653759268,
        "Longitude(deg)": 58.87689024091737,
        "Mean Anomaly(deg)": -21.1333822122693,
        "RAAN(deg)": 174.9891914693762,
        "Satellite Name": "Constellation 1 790",
        "Satellite Number": 790,
        "Semi-Major Axis(m)": 7083131.272910544,
        "Time(s)": 191
    },
    {
        "Altitude(m)": 706532.0606791787,
        "Argument of Periapsis(deg)": 0.01151001719911788,
        "Eccentricity": 0.0,
        "Inclination(deg)": 45.0,
        "Latitude(deg)": -14.857268760416813,
        "Longitude(deg)": 58.918610359176476,
        "Mean Anomaly(deg)": -21.07268107201944,
        "RAAN(deg)": 174.98913488021066,
        "Satellite Name": "Constellation 1 790",
        "Satellite Number": 790,
        "Semi-Major Axis(m)": 7083131.272910544,
        "Time(s)": 192
    },
    {
        "Altitude(m)": 706520.2944584651,
        "Argument of Periapsis(deg)": 0.011569965205363285,
        "Eccentricity": 0.0,
        "Inclination(deg)": 45.0,
        "Latitude(deg)": -14.81563648644018,
        "Longitude(deg)": 58.9603128723603,
        "Mean Anomaly(deg)": -21.011979931769503,
        "RAAN(deg)": 174.9890782910451,
        "Satellite Name": "Constellation 1 790",
        "Satellite Number": 790,
        "Semi-Major Axis(m)": 7083131.272910544,
        "Time(s)": 193
    },
    {
        "Altitude(m)": 706508.5413501264,
        "Argument of Periapsis(deg)": 0.01162991321160869,
        "Eccentricity": 0.0,
        "Inclination(deg)": 45.0,
        "Latitude(deg)": -14.77399486234532,
        "Longitude(deg)": 59.001998170742866,
        "Mean Anomaly(deg)": -20.951278791519616,
        "RAAN(deg)": 174.98902170187952,
        "Satellite Name": "Constellation 1 790",
        "Satellite Number": 790,
        "Semi-Major Axis(m)": 7083131.272910544,
        "Time(s)": 194
    },
    {
        "Altitude(m)": 706496.801389577,
        "Argument of Periapsis(deg)": 0.011689861217854095,
        "Eccentricity": 0.0,
        "Inclination(deg)": 45.0,
        "Latitude(deg)": -14.73234391861499,
        "Longitude(deg)": 59.043666140278006,
        "Mean Anomaly(deg)": -20.89057765126968,
        "RAAN(deg)": 174.98896511271397,
        "Satellite Name": "Constellation 1 790",
        "Satellite Number": 790,
        "Semi-Major Axis(m)": 7083131.272910544,
        "Time(s)": 195
    },
    {
        "Altitude(m)": 706485.0746121678,
        "Argument of Periapsis(deg)": 0.0117498092240995,
        "Eccentricity": 0.0,
        "Inclination(deg)": 45.0,
        "Latitude(deg)": -14.690683685698597,
        "Longitude(deg)": 59.085316834986855,
        "Mean Anomaly(deg)": -20.82987651101979,
        "RAAN(deg)": 174.98890852354836,
        "Satellite Name": "Constellation 1 790",
        "Satellite Number": 790,
        "Semi-Major Axis(m)": 7083131.272910544,
        "Time(s)": 196
    },
    {
        "Altitude(m)": 706473.3610531865,
        "Argument of Periapsis(deg)": 0.011809757230344905,
        "Eccentricity": 0.0,
        "Inclination(deg)": 45.0,
        "Latitude(deg)": -14.649014194012041,
        "Longitude(deg)": 59.12695030886143,
        "Mean Anomaly(deg)": -20.769175370769855,
        "RAAN(deg)": 174.9888519343828,
        "Satellite Name": "Constellation 1 790",
        "Satellite Number": 790,
        "Semi-Major Axis(m)": 7083131.272910544,
        "Time(s)": 197
    },
    {
        "Altitude(m)": 706461.6607478447,
        "Argument of Periapsis(deg)": 0.011869705236590313,
        "Eccentricity": 0.0,
        "Inclination(deg)": 45.0,
        "Latitude(deg)": -14.607335473938269,
        "Longitude(deg)": 59.16856661586411,
        "Mean Anomaly(deg)": -20.708474230519993,
        "RAAN(deg)": 174.98879534521726,
        "Satellite Name": "Constellation 1 790",
        "Satellite Number": 790,
        "Semi-Major Axis(m)": 7083131.272910544,
        "Time(s)": 198
    },
    {
        "Altitude(m)": 706449.9737313001,
        "Argument of Periapsis(deg)": 0.011929653242835719,
        "Eccentricity": 0.0,
        "Inclination(deg)": 45.0,
        "Latitude(deg)": -14.565647555826947,
        "Longitude(deg)": 59.21016580992807,
        "Mean Anomaly(deg)": -20.64777309027013,
        "RAAN(deg)": 174.98873875605167,
        "Satellite Name": "Constellation 1 790",
        "Satellite Number": 790,
        "Semi-Major Axis(m)": 7083131.272910544,
        "Time(s)": 199
    }
]